NORAD_CAT_ID,OBJECT_NAME,OBJECT_TYPE,EPOCH,MEAN_MOTION,ECCENTRICITY,INCLINATION,RA_OF_ASC_NODE,ARG_OF_PERICENTER,MEAN_ANOMALY,BSTAR,MEAN_MOTION_DOT,MEAN_MOTION_DDOT,TLE_LINE0,TLE_LINE1,TLE_LINE2,SEMIMAJOR_AXIS,PERIOD,APOGEE,PERIGEE,DECAYED
55918.0,STARLINK-5867,PAYLOAD,2024-06-18 20:53:42,14.98326289,0.0002872,70.0002,90.038,273.0874,86.9956,5.1048e-05,5.16e-06,0.0,0 STARLINK-5867,1 55918U 23037E   24170.87063404  .00000516  00000-0  51048-4 0  9993,2 55918  70.0002  90.0380 0002872 273.0874  86.9956 14.98326289 69638,6950.204,96.107,574.065,570.073,0.0
55918.0,STARLINK-5867,PAYLOAD,2024-06-19 11:18:55,14.98339788,0.0002788,70.0003,88.5232,278.8755,81.2089,-0.00012043,-1.53e-05,0.0,0 STARLINK-5867,1 55918U 23037E   24171.47147033 -.00001530  00000-0 -12043-3 0  9991,2 55918  70.0003  88.5232 0002788 278.8755  81.2089 14.98339788 69727,6950.163,96.106,573.965,570.09,0.0
55918.0,STARLINK-5867,PAYLOAD,2024-06-19 22:31:51,14.983329,0.0002777,70.0003,87.3451,271.8449,88.2392,6.361e-06,-1.7e-07,0.0,0 STARLINK-5867,1 55918U 23037E   24171.93879078 -.00000017  00000-0  63610-5 0  9999,2 55918  70.0003  87.3451 0002777 271.8449  88.2392 14.98332900 69451,6950.184,96.107,573.979,570.119,0.0
55918.0,STARLINK-5867,PAYLOAD,2024-06-20 11:20:56,14.98329195,0.0002797,70.0002,85.9987,268.9554,91.1284,-3.7326e-05,-5.38e-06,0.0,0 STARLINK-5867,1 55918U 23037E   24172.47287282 -.00000538  00000-0 -37326-4 0  9992,2 55918  70.0002  85.9987 0002797 268.9554  91.1284 14.98329195 69538,6950.195,96.107,574.004,570.116,0.0
55918.0,STARLINK-5867,PAYLOAD,2024-06-20 22:33:51,14.98334476,0.0002703,70.0002,84.8196,265.4074,94.6777,6.9439e-05,7.36e-06,0.0,0 STARLINK-5867,1 55918U 23037E   24172.94018194  .00000736  00000-0  69439-4 0  9996,2 55918  70.0002  84.8196 0002703 265.4074  94.6777 14.98334476 69942,6950.179,96.107,573.923,570.165,0.0
55918.0,STARLINK-5867,PAYLOAD,2024-06-21 04:58:25,14.98320767,0.0002821,70.0001,84.1471,267.8965,92.1871,-0.00013489,-1.702e-05,0.0,0 STARLINK-5867,1 55918U 23037E   24173.20723704 -.00001702  00000-0 -13489-3 0  9995,2 55918  70.0001  84.1471 0002821 267.8965  92.1871 14.98320767 69986,6950.221,96.108,574.047,570.126,0.0
55918.0,STARLINK-5867,PAYLOAD,2024-06-21 22:35:53,14.98324635,0.0002873,69.9999,82.2952,268.4598,91.6232,-7.8846e-05,-1.033e-05,0.0,0 STARLINK-5867,1 55918U 23037E   24173.94159533 -.00001033  00000-0 -78846-4 0  9995,2 55918  69.9999  82.2952 0002873 268.4598  91.6232 14.98324635 69756,6950.209,96.107,574.071,570.078,0.0
55918.0,STARLINK-5867,PAYLOAD,2024-06-22 03:24:17,14.98328861,0.0002817,70.0,81.7901,267.0305,93.0532,-3.9842e-05,-5.68e-06,0.0,0 STARLINK-5867,1 55918U 23037E   24174.14187185 -.00000568  00000-0 -39842-4 0  9997,2 55918  70.0000  81.7901 0002817 267.0305  93.0532 14.98328861 70126,6950.196,96.107,574.019,570.104,0.0
55918.0,STARLINK-5867,PAYLOAD,2024-06-22 21:01:45,14.98344349,0.0002995,69.9996,79.9383,268.9395,91.142,-0.00019933,-2.471e-05,0.0,0 STARLINK-5867,1 55918U 23037E   24174.87622497 -.00002471  00000-0 -19933-3 0  9990,2 55918  69.9996  79.9383 0002995 268.9395  91.1420 14.98344349 70232,6950.149,96.106,574.095,569.932,0.0
55918.0,STARLINK-5867,PAYLOAD,2024-06-22 22:37:53,14.98344377,0.0002995,69.9997,79.7704,269.1889,90.8927,-0.00019821,-2.458e-05,0.0,0 STARLINK-5867,1 55918U 23037E   24174.94298461 -.00002458  00000-0 -19821-3 0  9999,2 55918  69.9997  79.7704 0002995 269.1889  90.8927 14.98344377 69900,6950.148,96.106,574.095,569.932,0.0
55918.0,STARLINK-5867,PAYLOAD,2024-06-23 03:26:21,14.98183596,0.0002073,70.0001,79.266,267.0514,93.0408,0.0026724,0.00031817,0.0,0 STARLINK-5867,1 55918U 23037E   24175.14330153  .00031817  00000-0  26724-2 0  9995,2 55918  70.0001  79.2660 0002073 267.0514  93.0408 14.98183596 70279,6950.646,96.116,573.952,571.07,0.0
55918.0,STARLINK-5867,PAYLOAD,2024-06-23 11:26:58,14.98326904,0.0003013,69.9994,78.423,266.9898,93.0916,0.00014609,1.65e-05,0.0,0 STARLINK-5867,1 55918U 23037E   24175.47706597  .00001650  00000-0  14609-3 0  9992,2 55918  69.9994  78.4230 0003013 266.9898  93.0916 14.98326904 70321,6950.202,96.107,574.162,569.973,0.0
55918.0,STARLINK-5867,PAYLOAD,2024-06-23 22:39:55,14.98328182,0.0002892,69.9998,77.2445,269.032,91.0508,4.7927e-05,4.79e-06,0.0,0 STARLINK-5867,1 55918U 23037E   24175.94438903  .00000479  00000-0  47927-4 0  9995,2 55918  69.9998  77.2445 0002892 269.0320  91.0508 14.98328182 70053,6950.199,96.107,574.074,570.054,0.0
55918.0,STARLINK-5867,PAYLOAD,2024-06-24 03:28:19,14.98332471,0.0002808,70.0001,76.7392,271.9546,88.1291,9.9469e-05,1.094e-05,0.0,0 STARLINK-5867,1 55918U 23037E   24176.14466509  .00001094  00000-0  99469-4 0  9993,2 55918  70.0001  76.7392 0002808 271.9546  88.1291 14.98332471 70080,6950.185,96.107,574.002,570.099,0.0
55918.0,STARLINK-5867,PAYLOAD,2024-06-24 21:05:48,14.9832994,0.0002705,70.0006,74.8869,274.8131,85.2719,-1.2192e-05,-2.38e-06,0.0,0 STARLINK-5867,1 55918U 23037E   24176.87902928 -.00000238  00000-0 -12192-4 0  9992,2 55918  70.0006  74.8869 0002705 274.8131  85.2719 14.98329940 70531,6950.193,96.107,573.938,570.178,0.0
55918.0,STARLINK-5867,PAYLOAD,2024-06-25 03:30:20,14.98333078,0.0002686,70.0005,74.2139,273.557,86.5282,9.0339e-06,1.5e-07,0.0,0 STARLINK-5867,1 55918U 23037E   24177.14606627  .00000015  00000-0  90339-5 0  9991,2 55918  70.0005  74.2139 0002686 273.5570  86.5282 14.98333078 70238,6950.183,96.107,573.915,570.182,0.0
55918.0,STARLINK-5867,PAYLOAD,2024-06-25 21:07:48,14.98332394,0.0002696,70.0004,72.3626,277.3168,82.7684,1.5729e-05,9.5e-07,0.0,0 STARLINK-5867,1 55918U 23037E   24177.88042522  .00000095  00000-0  15729-4 0  9997,2 55918  70.0004  72.3626 0002696 277.3168  82.7684 14.98332394 70686,6950.185,96.107,573.924,570.177,0.0
55918.0,STARLINK-5867,PAYLOAD,2024-06-25 22:43:56,14.98332071,0.0002698,70.0004,72.1943,277.0512,83.0341,1.2766e-05,5.9e-07,0.0,0 STARLINK-5867,1 55918U 23037E   24177.94718538  .00000059  00000-0  12766-4 0  9999,2 55918  70.0004  72.1943 0002698 277.0512  83.0341 14.98332071 70358,6950.186,96.107,573.927,570.176,0.0
55918.0,STARLINK-5867,PAYLOAD,2024-06-26 03:32:20,14.98337083,0.0002653,70.0008,71.6906,277.4466,82.6391,5.1302e-05,5.19e-06,0.0,0 STARLINK-5867,1 55918U 23037E   24178.14746063  .00000519  00000-0  51302-4 0  9996,2 55918  70.0008  71.6906 0002653 277.4466  82.6391 14.98337083 70389,6950.171,96.107,573.88,570.192,0.0
55918.0,STARLINK-5867,PAYLOAD,2024-06-26 22:45:57,14.98327656,0.0002515,70.0011,69.6731,253.7532,106.3351,-3.1504e-06,-1.3e-06,0.0,0 STARLINK-5867,1 55918U 23037E   24178.94858607 -.00000130  00000-0 -31504-5 0  9996,2 55918  70.0011  69.6731 0002515 253.7532 106.3351 14.98327656 70503,6950.2,96.107,573.813,570.317,0.0
55918.0,STARLINK-5867,PAYLOAD,2024-06-27 01:58:14,14.98325411,0.0002487,70.0012,69.3367,255.6901,104.3982,-2.4384e-05,-3.84e-06,0.0,0 STARLINK-5867,1 55918U 23037E   24179.08210912 -.00000384  00000-0 -24384-4 0  9991,2 55918  70.0012  69.3367 0002487 255.6901 104.3982 14.98325411 70869,6950.207,96.107,573.801,570.344,0.0
55918.0,STARLINK-5867,PAYLOAD,2024-06-27 09:58:52,14.98350154,0.0003109,70.0004,68.492,269.5162,90.5641,0.00018933,2.168e-05,0.0,0 STARLINK-5867,1 55918U 23037E   24179.41588660  .00002168  00000-0  18933-3 0  9998,2 55918  70.0004  68.4920 0003109 269.5162  90.5641 14.98350154 70916,6950.131,96.106,574.156,569.835,0.0
55918.0,STARLINK-5867,PAYLOAD,2024-06-27 22:47:58,14.98321682,0.0002714,70.0011,67.1482,265.4727,94.6122,-0.00015114,-1.895e-05,0.0,0 STARLINK-5867,1 55918U 23037E   24179.94998822 -.00001895  00000-0 -15114-3 0  9997,2 55918  70.0011  67.1482 0002714 265.4727  94.6122 14.98321682 70650,6950.219,96.108,573.97,570.197,0.0
55918.0,STARLINK-5867,PAYLOAD,2024-06-28 02:00:14,14.98324407,0.000302,69.9997,66.8097,267.8316,92.2497,-0.00015806,-1.978e-05,0.0,0 STARLINK-5867,1 55918U 23037E   24180.08350572 -.00001978  00000-0 -15806-3 0  9998,2 55918  69.9997  66.8097 0003020 267.8316  92.2497 14.98324407 71017,6950.21,96.107,574.174,569.976,0.0
55918.0,STARLINK-5867,PAYLOAD,2024-06-28 10:00:54,14.98329729,0.0003028,69.9998,65.9666,272.261,87.8202,-0.0001474,-1.851e-05,0.0,0 STARLINK-5867,1 55918U 23037E   24180.41730285 -.00001851  00000-0 -14740-3 0  9994,2 55918  69.9998  65.9666 0003028 272.2610  87.8202 14.98329729 70728,6950.194,96.107,574.163,569.954,0.0
55918.0,STARLINK-5867,PAYLOAD,2024-06-28 21:13:51,14.98329161,0.0003355,69.9995,64.7903,260.293,99.7851,-2.2692e-05,-3.64e-06,0.0,0 STARLINK-5867,1 55918U 23037E   24180.88462019 -.00000364  00000-0 -22692-4 0  9996,2 55918  69.9995  64.7903 0003355 260.2930  99.7851 14.98329161 71139,6950.195,96.107,574.392,569.729,0.0
55918.0,STARLINK-5867,PAYLOAD,2024-06-28 22:49:58,14.98335632,0.0003218,69.9994,64.6208,268.1603,91.9188,1.6707e-05,1.06e-06,0.0,0 STARLINK-5867,1 55918U 23037E   24180.95137588  .00000106  00000-0  16707-4 0  9996,2 55918  69.9994  64.6208 0003218 268.1603  91.9188 14.98335632 70807,6950.175,96.107,574.277,569.804,0.0
55918.0,STARLINK-5867,PAYLOAD,2024-06-29 02:02:14,14.98340889,0.0003122,69.9996,64.2841,269.4431,90.637,7.8737e-05,8.47e-06,0.0,0 STARLINK-5867,1 55918U 23037E   24181.08489055  .00000847  00000-0  78737-4 0  9993,2 55918  69.9996  64.2841 0003122 269.4431  90.6370 14.98340889 71164,6950.159,96.106,574.194,569.854,0.0
55918.0,STARLINK-5867,PAYLOAD,2024-06-29 19:39:44,14.98323249,0.0003757,69.9978,62.4332,279.0307,81.0426,-0.00018083,-2.25e-05,0.0,0 STARLINK-5867,1 55918U 23037E   24181.81926828 -.00002250  00000-0 -18083-3 0  9997,2 55918  69.9978  62.4332 0003757 279.0307  81.0426 14.98323249 71271,6950.214,96.107,574.69,569.468,0.0
55918.0,STARLINK-5867,PAYLOAD,2024-06-29 22:52:01,14.98310931,0.0003,69.9995,62.0966,271.4695,88.612,2.7054e-06,-6.1e-07,0.0,0 STARLINK-5867,1 55918U 23037E   24181.95279155 -.00000061  00000-0  27054-5 0  9993,2 55918  69.9995  62.0966 0003000 271.4695  88.6120 14.98310931 70958,6950.252,96.108,574.202,570.032,0.0
